{"type": "FeatureCollection", "features": [ {"type": "Feature", "properties": {"norad_id": 67062, "name": "HULIANWANG DIGUI 16D", "group": "last-30-days", "lat": -47.18555220046379, "lon": -107.87037065695516, "alt_km": 800.8275555013861, "timestamp": "2025-12-13T22:39:28.447378+00:00", "meta": {"OBJECT_NAME": "HULIANWANG DIGUI 16D", "OBJECT_ID": "2025-295D", "EPOCH": "2025-12-12T05:06:24.477120", "MEAN_MOTION": 14.25916921, "ECCENTRICITY": 0.00124974, "INCLINATION": 50.0052, "RA_OF_ASC_NODE": 14.4731, "ARG_OF_PERICENTER": 251.2247, "MEAN_ANOMALY": 108.7311, "EPHEMERIS_TYPE": 0, "CLASSIFICATION_TYPE": "U", "NORAD_CAT_ID": 67062, "ELEMENT_SET_NO": 999, "REV_AT_EPOCH": 4, "BSTAR": 3.753899e-06, "MEAN_MOTION_DOT": -1.51e-06, "MEAN_MOTION_DDOT": 0}, "tle": {"line1": "1 67062U 25295D   25346.21278330 -.00000151  00000+0  37539-5 0  9999", "line2": "2 67062  50.0052  14.4731 0012497 251.2247 108.7311 14.25916921    46"}}, "geometry": {"type": "Point", "coordinates": [-107.87037065695516, -47.18555220046379]}}, {"type": "Feature", "properties": {"norad_id": 67064, "name": "HULIANWANG DIGUI 16F", "group": "last-30-days", "lat": -48.93961422964241, "lon": -98.34373721959781, "alt_km": 795.7071057590601, "timestamp": "2025-12-13T22:39:28.447390+00:00", "meta": {"OBJECT_NAME": "HULIANWANG DIGUI 16F", "OBJECT_ID": "2025-295F", "EPOCH": "2025-12-12T05:06:22.414752", "MEAN_MOTION": 14.26957674, "ECCENTRICITY": 0.00149026, "INCLINATION": 50.0027, "RA_OF_ASC_NODE": 14.4596, "ARG_OF_PERICENTER": 247.8107, "MEAN_ANOMALY": 112.1227, "EPHEMERIS_TYPE": 0, "CLASSIFICATION_TYPE": "U", "NORAD_CAT_ID": 67064, "ELEMENT_SET_NO": 999, "REV_AT_EPOCH": 4, "BSTAR": 2.6251967e-05, "MEAN_MOTION_DOT": -9.6e-07, "MEAN_MOTION_DDOT": 0}, "tle": {"line1": "1 67064U 25295F   25346.21275943 -.00000096  00000+0  26252-4 0  9995", "line2": "2 67064  50.0027  14.4596 0014902 247.8107 112.1227 14.26957674    44"}}, "geometry": {"type": "Point", "coordinates": [-98.34373721959781, -48.93961422964241]}}, {"type": "Feature", "properties": {"norad_id": 67066, "name": "HULIANWANG DIGUI 16H", "group": "last-30-days", "lat": -48.20759502178163, "lon": -102.93757813251966, "alt_km": 799.8489458072563, "timestamp": "2025-12-13T22:39:28.447403+00:00", "meta": {"OBJECT_NAME": "HULIANWANG DIGUI 16H", "OBJECT_ID": "2025-295H", "EPOCH": "2025-12-12T05:06:20.088000", "MEAN_MOTION": 14.26429655, "ECCENTRICITY": 0.00114905, "INCLINATION": 50.0029, "RA_OF_ASC_NODE": 14.4606, "ARG_OF_PERICENTER": 248.6611, "MEAN_ANOMALY": 111.3077, "EPHEMERIS_TYPE": 0, "CLASSIFICATION_TYPE": "U", "NORAD_CAT_ID": 67066, "ELEMENT_SET_NO": 999, "REV_AT_EPOCH": 4, "BSTAR": 2.4353642e-05, "MEAN_MOTION_DOT": -1.01e-06, "MEAN_MOTION_DDOT": 0}, "tle": {"line1": "1 67066U 25295H   25346.21273250 -.00000101  00000+0  24354-4 0  9994", "line2": "2 67066  50.0029  14.4606 0011490 248.6611 111.3077 14.26429655    45"}}, "geometry": {"type": "Point", "coordinates": [-102.93757813251966, -48.20759502178163]}}, {"type": "Feature", "properties": {"norad_id": 67067, "name": "HULIANWANG DIGUI 16J", "group": "last-30-days", "lat": -48.11945738407498, "lon": -103.41498059112142, "alt_km": 800.7958918531531, "timestamp": "2025-12-13T22:39:28.447413+00:00", "meta": {"OBJECT_NAME": "HULIANWANG DIGUI 16J", "OBJECT_ID": "2025-295J", "EPOCH": "2025-12-12T05:06:18.555264", "MEAN_MOTION": 14.26361638, "ECCENTRICITY": 0.00104901, "INCLINATION": 50.0044, "RA_OF_ASC_NODE": 14.4694, "ARG_OF_PERICENTER": 253.0387, "MEAN_ANOMALY": 106.9378, "EPHEMERIS_TYPE": 0, "CLASSIFICATION_TYPE": "U", "NORAD_CAT_ID": 67067, "ELEMENT_SET_NO": 999, "REV_AT_EPOCH": 4, "BSTAR": 6.475965e-06, "MEAN_MOTION_DOT": -1.45e-06, "MEAN_MOTION_DDOT": 0}, "tle": {"line1": "1 67067U 25295J   25346.21271476 -.00000145  00000+0  64760-5 0  9997", "line2": "2 67067  50.0044  14.4694 0010490 253.0387 106.9378 14.26361638    49"}}, "geometry": {"type": "Point", "coordinates": [-103.41498059112142, -48.11945738407498]}}]}